[{"OBJECT_NAME":"STARLINK-33597","OBJECT_ID":"2025-015F","EPOCH":"2026-03-09T22:20:11.298912","MEAN_MOTION":15.30205109,"ECCENTRICITY":0.00010875,"INCLINATION":53.1587,"RA_OF_ASC_NODE":321.6485,"ARG_OF_PERICENTER":78.5301,"MEAN_ANOMALY":281.5822,"EPHEMERIS_TYPE":0,"CLASSIFICATION_TYPE":"U","NORAD_CAT_ID":62763,"ELEMENT_SET_NO":999,"REV_AT_EPOCH":6451,"BSTAR":0.001206632,"MEAN_MOTION_DOT":0.00035555,"MEAN_MOTION_DDOT":0},{"OBJECT_NAME":"PSLV R\/B","OBJECT_ID":"2020-081L","EPOCH":"2026-03-09T11:07:47.822880","MEAN_MOTION":15.35733047,"ECCENTRICITY":0.00238531,"INCLINATION":36.845,"RA_OF_ASC_NODE":143.8276,"ARG_OF_PERICENTER":144.7418,"MEAN_ANOMALY":215.4916,"EPHEMERIS_TYPE":0,"CLASSIFICATION_TYPE":"U","NORAD_CAT_ID":46915,"ELEMENT_SET_NO":999,"REV_AT_EPOCH":29573,"BSTAR":0.00039539958,"MEAN_MOTION_DOT":0.00014147,"MEAN_MOTION_DDOT":0}]
